[{"OBJECT_NAME":"STARLINK-32263","OBJECT_ID":"2024-138S","EPOCH":"2026-03-09T21:32:12.571008","MEAN_MOTION":15.30186902,"ECCENTRICITY":0.00010471,"INCLINATION":53.1598,"RA_OF_ASC_NODE":308.3393,"ARG_OF_PERICENTER":90.2189,"MEAN_ANOMALY":269.8932,"EPHEMERIS_TYPE":0,"CLASSIFICATION_TYPE":"U","NORAD_CAT_ID":60371,"ELEMENT_SET_NO":999,"REV_AT_EPOCH":9056,"BSTAR":2.2275173e-5,"MEAN_MOTION_DOT":3.01e-6,"MEAN_MOTION_DDOT":0},{"OBJECT_NAME":"ELECTRON KICK STAGE R\/B","OBJECT_ID":"2025-061J","EPOCH":"2026-03-09T21:50:35.145600","MEAN_MOTION":15.31602074,"ECCENTRICITY":0.00402669,"INCLINATION":97.5479,"RA_OF_ASC_NODE":52.3854,"ARG_OF_PERICENTER":150.2628,"MEAN_ANOMALY":210.0914,"EPHEMERIS_TYPE":0,"CLASSIFICATION_TYPE":"U","NORAD_CAT_ID":63359,"ELEMENT_SET_NO":999,"REV_AT_EPOCH":5306,"BSTAR":0.0006963674,"MEAN_MOTION_DOT":0.00021749,"MEAN_MOTION_DDOT":0}]
